{"type": "FeatureCollection", "features": [ {"type": "Feature", "properties": {"norad_id": 39591, "name": "COSMOS 2251 DEB", "group": "cosmos-2251-debris", "lat": 17.367294460378968, "lon": 56.88620522521077, "alt_km": 772.9300794645806, "timestamp": "2025-12-15T07:02:38.013192+00:00", "meta": {"OBJECT_NAME": "COSMOS 2251 DEB", "OBJECT_ID": "1993-036BUW", "EPOCH": "2025-12-14T02:17:56.256000", "MEAN_MOTION": 14.4181661, "ECCENTRICITY": 0.00292248, "INCLINATION": 74.0214, "RA_OF_ASC_NODE": 244.2482, "ARG_OF_PERICENTER": 357.0219, "MEAN_ANOMALY": 70.474, "EPHEMERIS_TYPE": 0, "CLASSIFICATION_TYPE": "U", "NORAD_CAT_ID": 39591, "ELEMENT_SET_NO": 999, "REV_AT_EPOCH": 61796, "BSTAR": 0.00040583296, "MEAN_MOTION_DOT": 1.307e-05, "MEAN_MOTION_DDOT": 0}, "tle": {"line1": "1 39591U 93036BUW 25348.09579000  .00001307  00000+0  40583-3 0  9993", "line2": "2 39591  74.0214 244.2482 0029224 357.0219  70.4740 14.41816610617962"}}, "geometry": {"type": "Point", "coordinates": [56.88620522521077, 17.367294460378968]}}, {"type": "Feature", "properties": {"norad_id": 40218, "name": "COSMOS 2251 DEB", "group": "cosmos-2251-debris", "lat": 51.08817279627677, "lon": -95.127525701206, "alt_km": 747.5522449206001, "timestamp": "2025-12-15T07:02:38.013202+00:00", "meta": {"OBJECT_NAME": "COSMOS 2251 DEB", "OBJECT_ID": "1993-036BUX", "EPOCH": "2025-12-14T10:48:31.251744", "MEAN_MOTION": 14.41597705, "ECCENTRICITY": 0.00168728, "INCLINATION": 74.0298, "RA_OF_ASC_NODE": 245.6562, "ARG_OF_PERICENTER": 328.6, "MEAN_ANOMALY": 31.4147, "EPHEMERIS_TYPE": 0, "CLASSIFICATION_TYPE": "U", "NORAD_CAT_ID": 40218, "ELEMENT_SET_NO": 999, "REV_AT_EPOCH": 58886, "BSTAR": 0.00046023204, "MEAN_MOTION_DOT": 1.474e-05, "MEAN_MOTION_DDOT": 0}, "tle": {"line1": "1 40218U 93036BUX 25348.45036171  .00001474  00000+0  46023-3 0  9998", "line2": "2 40218  74.0298 245.6562 0016872 328.6000  31.4147 14.41597705588868"}}, "geometry": {"type": "Point", "coordinates": [-95.127525701206, 51.08817279627677]}}, {"type": "Feature", "properties": {"norad_id": 40223, "name": "COSMOS 2251 DEB", "group": "cosmos-2251-debris", "lat": -51.22062546389835, "lon": -75.53343393063372, "alt_km": 554.8791883444028, "timestamp": "2025-12-15T07:02:38.013213+00:00", "meta": {"OBJECT_NAME": "COSMOS 2251 DEB", "OBJECT_ID": "1993-036BVC", "EPOCH": "2025-12-14T00:26:13.435584", "MEAN_MOTION": 15.03818233, "ECCENTRICITY": 0.00153317, "INCLINATION": 73.9371, "RA_OF_ASC_NODE": 86.0727, "ARG_OF_PERICENTER": 290.315, "MEAN_ANOMALY": 242.4766, "EPHEMERIS_TYPE": 0, "CLASSIFICATION_TYPE": "U", "NORAD_CAT_ID": 40223, "ELEMENT_SET_NO": 999, "REV_AT_EPOCH": 59393, "BSTAR": 0.0044494793, "MEAN_MOTION_DOT": 0.00061853, "MEAN_MOTION_DDOT": 0}, "tle": {"line1": "1 40223U 93036BVC 25348.01821106  .00061853  00000+0  44495-2 0  9993", "line2": "2 40223  73.9371  86.0727 0015331 290.3150 242.4766 15.03818233593930"}}, "geometry": {"type": "Point", "coordinates": [-75.53343393063372, -51.22062546389835]}}, {"type": "Feature", "properties": {"norad_id": 40228, "name": "COSMOS 2251 DEB", "group": "cosmos-2251-debris", "lat": -57.75599964298926, "lon": -131.14119644128863, "alt_km": 745.6537697615267, "timestamp": "2025-12-15T07:02:38.013223+00:00", "meta": {"OBJECT_NAME": "COSMOS 2251 DEB", "OBJECT_ID": "1993-036BVH", "EPOCH": "2025-12-11T12:30:37.061856", "MEAN_MOTION": 14.40990348, "ECCENTRICITY": 0.00239974, "INCLINATION": 74.0549, "RA_OF_ASC_NODE": 262.7798, "ARG_OF_PERICENTER": 324.5031, "MEAN_ANOMALY": 213.1591, "EPHEMERIS_TYPE": 0, "CLASSIFICATION_TYPE": "U", "NORAD_CAT_ID": 40228, "ELEMENT_SET_NO": 999, "REV_AT_EPOCH": 58903, "BSTAR": 0.00055464719, "MEAN_MOTION_DOT": 1.762e-05, "MEAN_MOTION_DDOT": 0}, "tle": {"line1": "1 40228U 93036BVH 25345.52126229  .00001762  00000+0  55465-3 0  9998", "line2": "2 40228  74.0549 262.7798 0023997 324.5031 213.1591 14.40990348589035"}}, "geometry": {"type": "Point", "coordinates": [-131.14119644128863, -57.75599964298926]}}, {"type": "Feature", "properties": {"norad_id": 40230, "name": "COSMOS 2251 DEB", "group": "cosmos-2251-debris", "lat": 2.288179097931329, "lon": 41.444231348607225, "alt_km": 733.0116747244283, "timestamp": "2025-12-15T07:02:38.013233+00:00", "meta": {"OBJECT_NAME": "COSMOS 2251 DEB", "OBJECT_ID": "1993-036BVK", "EPOCH": "2025-12-14T22:00:49.266432", "MEAN_MOTION": 14.49332961, "ECCENTRICITY": 0.00191764, "INCLINATION": 74.0428, "RA_OF_ASC_NODE": 222.8045, "ARG_OF_PERICENTER": 280.5439, "MEAN_ANOMALY": 94.8076, "EPHEMERIS_TYPE": 0, "CLASSIFICATION_TYPE": "U", "NORAD_CAT_ID": 40230, "ELEMENT_SET_NO": 999, "REV_AT_EPOCH": 59003, "BSTAR": 0.00050113522, "MEAN_MOTION_DOT": 1.891e-05, "MEAN_MOTION_DDOT": 0}, "tle": {"line1": "1 40230U 93036BVK 25348.91723688  .00001891  00000+0  50114-3 0  9998", "line2": "2 40230  74.0428 222.8045 0019176 280.5439  94.8076 14.49332961590037"}}, "geometry": {"type": "Point", "coordinates": [41.444231348607225, 2.288179097931329]}}, {"type": "Feature", "properties": {"norad_id": 40233, "name": "COSMOS 2251 DEB", "group": "cosmos-2251-debris", "lat": 73.06400994095114, "lon": 169.30959957989637, "alt_km": 689.472649416397, "timestamp": "2025-12-15T07:02:38.013243+00:00", "meta": {"OBJECT_NAME": "COSMOS 2251 DEB", "OBJECT_ID": "1993-036BVN", "EPOCH": "2025-12-12T17:44:37.201344", "MEAN_MOTION": 14.58419195, "ECCENTRICITY": 0.00452349, "INCLINATION": 73.9396, "RA_OF_ASC_NODE": 103.1069, "ARG_OF_PERICENTER": 178.0114, "MEAN_ANOMALY": 182.1239, "EPHEMERIS_TYPE": 0, "CLASSIFICATION_TYPE": "U", "NORAD_CAT_ID": 40233, "ELEMENT_SET_NO": 999, "REV_AT_EPOCH": 59137, "BSTAR": 0.0020636602, "MEAN_MOTION_DOT": 9.688e-05, "MEAN_MOTION_DDOT": 0}, "tle": {"line1": "1 40233U 93036BVN 25346.73931946  .00009688  00000+0  20637-2 0  9995", "line2": "2 40233  73.9396 103.1069 0045234 178.0114 182.1239 14.58419195591379"}}, "geometry": {"type": "Point", "coordinates": [169.30959957989637, 73.06400994095114]}}, {"type": "Feature", "properties": {"norad_id": 40236, "name": "COSMOS 2251 DEB", "group": "cosmos-2251-debris", "lat": -13.922391869546214, "lon": 135.52773398987895, "alt_km": 829.6083320194411, "timestamp": "2025-12-15T07:02:38.013253+00:00", "meta": {"OBJECT_NAME": "COSMOS 2251 DEB", "OBJECT_ID": "1993-036BVR", "EPOCH": "2025-12-07T17:52:23.026080", "MEAN_MOTION": 13.24639967, "ECCENTRICITY": 0.05366128, "INCLINATION": 73.5349, "RA_OF_ASC_NODE": 151.6266, "ARG_OF_PERICENTER": 32.3576, "MEAN_ANOMALY": 330.9258, "EPHEMERIS_TYPE": 0, "CLASSIFICATION_TYPE": "U", "NORAD_CAT_ID": 40236, "ELEMENT_SET_NO": 999, "REV_AT_EPOCH": 53558, "BSTAR": 0.0015786255, "MEAN_MOTION_DOT": 1.455e-05, "MEAN_MOTION_DDOT": 0}, "tle": {"line1": "1 40236U 93036BVR 25341.74471095  .00001455  00000+0  15786-2 0  9991", "line2": "2 40236  73.5349 151.6266 0536612  32.3576 330.9258 13.24639967535580"}}, "geometry": {"type": "Point", "coordinates": [135.52773398987895, -13.922391869546214]}}, {"type": "Feature", "properties": {"norad_id": 40238, "name": "COSMOS 2251 DEB", "group": "cosmos-2251-debris", "lat": 73.57791025237829, "lon": 162.72741091165506, "alt_km": 949.8595516839514, "timestamp": "2025-12-15T07:02:38.013264+00:00", "meta": {"OBJECT_NAME": "COSMOS 2251 DEB", "OBJECT_ID": "1993-036BVT", "EPOCH": "2025-12-13T22:00:17.688960", "MEAN_MOTION": 13.25118761, "ECCENTRICITY": 0.05494159, "INCLINATION": 73.9889, "RA_OF_ASC_NODE": 61.7905, "ARG_OF_PERICENTER": 33.3831, "MEAN_ANOMALY": 330.0665, "EPHEMERIS_TYPE": 0, "CLASSIFICATION_TYPE": "U", "NORAD_CAT_ID": 40238, "ELEMENT_SET_NO": 999, "REV_AT_EPOCH": 54052, "BSTAR": 0.0015955991, "MEAN_MOTION_DOT": 1.546e-05, "MEAN_MOTION_DDOT": 0}, "tle": {"line1": "1 40238U 93036BVT 25347.91687140  .00001546  00000+0  15956-2 0  9998", "line2": "2 40238  73.9889  61.7905 0549415  33.3831 330.0665 13.25118761540524"}}, "geometry": {"type": "Point", "coordinates": [162.72741091165506, 73.57791025237829]}}, {"type": "Feature", "properties": {"norad_id": 40239, "name": "COSMOS 2251 DEB", "group": "cosmos-2251-debris", "lat": 67.87899701986315, "lon": -44.2689388163929, "alt_km": 643.2351194362845, "timestamp": "2025-12-15T07:02:38.013274+00:00", "meta": {"OBJECT_NAME": "COSMOS 2251 DEB", "OBJECT_ID": "1993-036BVU", "EPOCH": "2025-12-10T14:12:54.993024", "MEAN_MOTION": 14.6197936, "ECCENTRICITY": 0.0084758, "INCLINATION": 74.0316, "RA_OF_ASC_NODE": 279.9471, "ARG_OF_PERICENTER": 31.8637, "MEAN_ANOMALY": 148.8031, "EPHEMERIS_TYPE": 0, "CLASSIFICATION_TYPE": "U", "NORAD_CAT_ID": 40239, "ELEMENT_SET_NO": 999, "REV_AT_EPOCH": 59579, "BSTAR": 0.00074089, "MEAN_MOTION_DOT": 3.879e-05, "MEAN_MOTION_DDOT": 0}, "tle": {"line1": "1 40239U 93036BVU 25344.59230316  .00003879  00000+0  74089-3 0  9993", "line2": "2 40239  74.0316 279.9471 0084758  31.8637 148.8031 14.61979360595796"}}, "geometry": {"type": "Point", "coordinates": [-44.2689388163929, 67.87899701986315]}}, {"type": "Feature", "properties": {"norad_id": 40792, "name": "COSMOS 2251 DEB", "group": "cosmos-2251-debris", "lat": -65.38945599730054, "lon": 3.883568230100386, "alt_km": 684.1400379409333, "timestamp": "2025-12-15T07:02:38.013284+00:00", "meta": {"OBJECT_NAME": "COSMOS 2251 DEB", "OBJECT_ID": "1993-036BVV", "EPOCH": "2025-12-13T21:48:53.616096", "MEAN_MOTION": 14.67590278, "ECCENTRICITY": 0.00153774, "INCLINATION": 74.0462, "RA_OF_ASC_NODE": 45.2013, "ARG_OF_PERICENTER": 149.8992, "MEAN_ANOMALY": 27.0176, "EPHEMERIS_TYPE": 0, "CLASSIFICATION_TYPE": "U", "NORAD_CAT_ID": 40792, "ELEMENT_SET_NO": 999, "REV_AT_EPOCH": 63201, "BSTAR": 0.0011407186, "MEAN_MOTION_DOT": 6.465e-05, "MEAN_MOTION_DDOT": 0}, "tle": {"line1": "1 40792U 93036BVV 25347.90895389  .00006465  00000+0  11407-2 0  9990", "line2": "2 40792  74.0462  45.2013 0015377 149.8992  27.0176 14.67590278632011"}}, "geometry": {"type": "Point", "coordinates": [3.883568230100386, -65.38945599730054]}}]}